INSAT-3DS               
1 58990U 24033A   24171.63670715 -.00000142  00000+0  00000+0 0  9999
2 58990   0.0159 349.8168 0010402 105.1251 125.6022  1.00268037   992
METEOR-M2 4             
1 59051U 24039A   24190.16993340  .00000053  00000+0  43033-4 0  9993
2 59051  98.5985 151.5479 0008208  67.4444 292.7601 14.22236957 18473
TIANMU-1 19             
1 58660U 23208A   24189.89439917  .00005901  00000+0  31586-3 0  9994
2 58660  97.4137 301.7723 0007729 295.5923  64.4511 15.15381333 29309
TIANMU-1 20             
1 58661U 23208B   24190.01911501  .00005878  00000+0  30768-3 0  9999
2 58661  97.4064 301.8727 0008624 306.6187  53.4253 15.16173219 29332
TIANMU-1 21             
1 58662U 23208C   24190.06569946  .00007257  00000+0  36931-3 0  9998
2 58662  97.4103 302.2154 0008309 306.1430  53.9034 15.17089020 29353
TIANMU-1 22             
1 58663U 23208D   24189.91119066  .00006083  00000+0  32591-3 0  9999
2 58663  97.4124 301.8599 0004112 327.0922  33.0054 15.15352713 29318
TIANMU-1 15             
1 58700U 24004A   24189.95201711  .00004995  00000+0  26842-3 0  9991
2 58700  97.4622  10.6745 0009378 349.5678  10.5359 15.15308932 27913
TIANMU-1 16             
1 58701U 24004B   24190.13253395  .00005440  00000+0  29171-3 0  9993
2 58701  97.4549  10.7128 0009492 354.5783   5.5345 15.15346219 27940
TIANMU-1 17             
1 58702U 24004C   24189.91969371  .00005926  00000+0  31783-3 0  9997
2 58702  97.4591  10.6444 0007258 351.9468   8.1646 15.15318613 27903
TIANMU-1 18             
1 58703U 24004D   24189.90255309  .00005330  00000+0  28608-3 0  9997
2 58703  97.4608  10.7043 0006227 343.2257  16.8769 15.15344881 27902
